satNo,name,line1,line2,inclination,apogee,raan,argument_of_perigee,eccentricity,mean_motion,hdbscan_labels
63433,STARLINK-33682,1 63433U 25069A   26027.14658825 -.00068096  00000-0 -23118-2 0  9995,2 63433  53.1591 335.4933 0003320  18.1878 341.9241 15.30139929 47047,53.1591,484.80680890220776,335.4933,18.1878,0.000332,15.30139929,-1
63434,STARLINK-33710,1 63434U 25069B   26027.16345586  .00038546  00000-0  13062-2 0  9997,2 63434  53.1597 335.5979 0001113  92.5133 267.5995 15.30214672 47041,53.1597,483.0710350315403,335.5979,92.5133,0.0001113,15.30214672,1726
63435,STARLINK-33733,1 63435U 25069C   26027.16028889  .00039949  00000-0  13527-2 0  9996,2 63435  53.1621 335.5762 0001217 137.0991 223.0105 15.30224390 47040,53.1621,483.11329032719414,335.5762,137.0991,0.0001217,15.3022439,1725
63436,STARLINK-33638,1 63436U 25069D   26027.09181060  .00069431  00000-0  23312-2 0  9992,2 63436  53.1600 335.8585 0001078  99.7150 260.3973 15.30245642 47039,53.16,482.95457068422996,335.8585,99.715,0.0001078,15.30245642,1715
63437,STARLINK-33726,1 63437U 25069E   26027.15184935  .00036592  00000-0  12411-2 0  9994,2 63437  53.1594 335.5261 0001349  88.4361 271.6794 15.30210691 46996,53.1594,483.24466109423247,335.5261,88.4361,0.0001349,15.30210691,1750
63438,STARLINK-33681,1 63438U 25069F   26027.14446023  .00045584  00000-0  15401-2 0  9996,2 63438  53.1595 335.4791 0001026  86.7299 273.3819 15.30234313 47049,53.1595,482.9527623116244,335.4791,86.7299,0.0001026,15.30234313,1749
63439,STARLINK-33730,1 63439U 25069G   26027.11807863  .00041575  00000-0  14075-2 0  9999,2 63439  53.1618 335.3098 0001083  71.0166 289.0952 15.30212207 47048,53.1618,483.05783584178147,335.3098,71.0166,0.0001083,15.30212207,1763
63440,STARLINK-33743,1 63440U 25069H   26026.82738471  .00043325  00000-0  14651-2 0  9991,2 63440  53.1578 337.0595 0002644  40.2920 319.8276 15.30227411 46881,53.1578,484.0822309837649,337.0595,40.292,0.0002644,15.30227411,1568
63441,STARLINK-33715,1 63441U 25069J   26027.08547839  .00034410  00000-0  11679-2 0  9999,2 63441  53.1590 335.8141 0001235  87.6595 272.4547 15.30216611 47030,53.159,483.14885527148095,335.8141,87.6595,0.0001235,15.30216611,1714
63442,STARLINK-33762,1 63442U 25069K   26027.14867736  .00026473  00000-0  90234-3 0  9993,2 63442  53.1602 335.4980 0001560 149.7512 210.3580 15.30214874 47040,53.1602,483.3767746908721,335.498,149.7512,0.000156,15.30214874,1749
63443,STARLINK-33753,1 63443U 25069L   26027.13813019  .00039214  00000-0  13282-2 0  9992,2 63443  53.1607 335.4363 0001291  70.5754 289.5386 15.30221704 47032,53.1607,483.1720253394926,335.4363,70.5754,0.0001291,15.30221704,1749
63444,STARLINK-33747,1 63444U 25069M   26027.13179911  .00061860  00000-0  20806-2 0  9991,2 63444  53.1608 335.3958 0001360  74.8865 285.2286 15.30243019 46999,53.1608,483.15566386175806,335.3958,74.8865,0.000136,15.30243019,1741
63445,STARLINK-33659,1 63445U 25069N   26027.16978838  .00037955  00000-0  12866-2 0  9995,2 63445  53.1620 335.6308 0001129  84.1911 275.9219 15.30210937 46990,53.162,483.0931534650391,335.6308,84.1911,0.0001129,15.30210937,1726
63446,STARLINK-33746,1 63446U 25069P   26027.14340361  .00045079  00000-0  15242-2 0  9995,2 63446  53.1587 335.4649 0001076  74.3401 285.7718 15.30215667 46993,53.1587,483.0427066297447,335.4649,74.3401,0.0001076,15.30215667,1749
63447,STARLINK-33799,1 63447U 25069Q   26027.16767821  .00045016  00000-0  15222-2 0  9991,2 63447  53.1610 335.6160 0001612  55.2931 304.8221 15.30214045 46938,53.161,483.4148874952886,335.616,55.2931,0.0001612,15.30214045,1726
63448,STARLINK-33797,1 63448U 25069R   26027.12546616  .00042004  00000-0  14221-2 0  9997,2 63448  53.1608 335.3548 0001232  91.8821 268.2321 15.30204728 46992,53.1608,483.182283735645,335.3548,91.8821,0.0001232,15.30204728,1770
63449,STARLINK-33798,1 63449U 25069S   26027.17084226  .00039226  00000-0  13298-2 0  9992,2 63449  53.1616 335.6250 0001316  83.6317 276.4833 15.30194679 46775,53.1616,483.26986023538655,335.625,83.6317,0.0001316,15.30194679,1726
63450,STARLINK-33736,1 63450U 25069T   26027.11913395  .00039284  00000-0  13304-2 0  9998,2 63450  53.1621 335.3121 0001149  72.0517 288.0609 15.30227070 46991,53.1621,483.0586853362378,335.3121,72.0517,0.0001149,15.3022707,1763
63451,STARLINK-33740,1 63451U 25069U   26027.07492417  .00063459  00000-0  21351-2 0  9993,2 63451  53.1597 335.7472 0001227  96.2099 263.9041 15.30221493 46925,53.1597,483.12879437143636,335.7472,96.2099,0.0001227,15.30221493,-1
63452,STARLINK-33763,1 63452U 25069V   26027.12440768  .00055786  00000-0  18810-2 0  9992,2 63452  53.1619 335.3358 0001171  71.6453 288.4676 15.30209042 47045,53.1619,483.12759613599724,335.3358,71.6453,0.0001171,15.30209042,1769
63453,STARLINK-33784,1 63453U 25069W   26027.16662257  .00019295  00000-0  66171-3 0  9995,2 63453  53.1610 335.6093 0001387  78.9222 281.1934 15.30208640 47049,53.161,483.2768284120094,335.6093,78.9222,0.0001387,15.3020864,1726
63454,STARLINK-33768,1 63454U 25069X   26027.26770869  .00044484  00000-0  15034-2 0  9995,2 63454  53.1610 334.8042 0000542 118.3781 241.7275 15.30236354 47061,53.161,482.6149708761964,334.8042,118.3781,5.42e-05,15.30236354,-1
63455,STARLINK-33761,1 63455U 25069Y   26027.12757915  .00039917  00000-0  13535-2 0  9997,2 63455  53.1610 335.3544 0001497  59.6000 300.5148 15.30179573 47046,53.161,483.43901737312416,335.3544,59.6,0.0001497,15.30179573,1770
63456,STARLINK-33737,1 63456U 25069Z   26026.66667824  .00057918  00000-0  19551-2 0  9990,2 63456  53.1596 337.5565 0001165  84.3197 220.5528 15.30156433  5879,53.1596,483.28058638591693,337.5565,84.3197,0.0001165,15.30156433,1568
63457,STARLINK-33795,1 63457U 25069AA  26027.16134209  .00042291  00000-0  14314-2 0  9993,2 63457  53.1608 335.5681 0000910  99.6437 260.4667 15.30211144 46934,53.1608,482.9424476563809,335.5681,99.6437,9.1e-05,15.30211144,1725
63458,STARLINK-33756,1 63458U 25069AB  26027.16450662  .00024106  00000-0  82316-3 0  9991,2 63458  53.1599 335.5816 0001018 108.4932 251.6179 15.30208357 47048,53.1599,483.02478573775574,335.5816,108.4932,0.0001018,15.30208357,1725
63459,STARLINK-33780,1 63459U 25069AC  26027.19605544  .00038787  00000-0  13138-2 0  9991,2 63459  53.1593 335.0682 0001528  66.7710 293.3452 15.30225267 46949,53.1593,483.32380841853933,335.0682,66.771,0.0001528,15.30225267,-1
63460,STARLINK-33679,1 63460U 25070A   26026.58378330  .00048622  00000-0  17603-2 0  9997,2 63460  42.9992 137.9056 0000806 264.8488  95.2272 15.27665093 46530,42.9992,490.48429987637513,137.9056,264.8488,8.06e-05,15.27665093,-1
63461,STARLINK-33706,1 63461U 25070B   26026.71839551  .00038244  00000-0  13903-2 0  9998,2 63461  42.9997 137.1637 0001313 271.3823  88.6879 15.27621755 46551,42.9997,490.96192671468293,137.1637,271.3823,0.0001313,15.27621755,428
63462,STARLINK-33691,1 63462U 25070C   26026.73238249  .00033007  00000-0  12021-2 0  9990,2 63462  42.9998 136.4009 0001407 267.5996  92.4694 15.27620121 46510,42.9998,491.0313139424175,136.4009,267.5996,0.0001407,15.27620121,-1
63463,STARLINK-33696,1 63463U 25070D   26026.69269441  .00037013  00000-0  13460-2 0  9993,2 63463  43.0016 136.9710 0002316 263.3274  96.7315 15.27621854 46556,43.0016,491.6497946431953,136.971,263.3274,0.0002316,15.27621854,427
63464,STARLINK-33701,1 63464U 25070E   26026.65686489  .00046725  00000-0  16942-2 0  9993,2 63464  42.9999 137.5603 0001834 270.0008  90.0633 15.27627896 46548,42.9999,491.3009971602065,137.5603,270.0008,0.0001834,15.27627896,412
63465,STARLINK-33685,1 63465U 25070F   26026.70425647  .00046057  00000-0  16704-2 0  9991,2 63465  42.9999 137.0559 0002897 246.2131 113.8417 15.27624262 46555,42.9999,492.04121010579263,137.0559,246.2131,0.0002897,15.27624262,427
63466,STARLINK-33654,1 63466U 25070G   26026.69397971  .00032089  00000-0  11696-2 0  9993,2 63466  43.0032 136.9760 0001557 262.3400  97.7275 15.27605768 46550,43.0032,491.1772131239893,136.976,262.34,0.0001557,15.27605768,427
63467,STARLINK-33697,1 63467U 25070H   26026.69655650  .00035246  00000-0  12831-2 0  9995,2 63467  43.0000 137.0100 0000411 249.8785 110.2022 15.27609850 46557,43.0,490.37870693165064,137.01,249.8785,4.11e-05,15.2760985,427
63468,STARLINK-33720,1 63468U 25070J   26026.69783017  .00030449  00000-0  11103-2 0  9996,2 63468  43.0081 136.9959 0003751 238.9246 121.1238 15.27609772 46551,43.0081,492.6705468748165,136.9959,238.9246,0.0003751,15.27609772,427
63469,STARLINK-33587,1 63469U 25070K   26026.68241699  .00033283  00000-0  12126-2 0  9996,2 63469  43.0027 136.8905 0002298 247.6929 112.3679 15.27604502 46559,43.0027,491.68941292293,136.8905,247.6929,0.0002298,15.27604502,426
63470,STARLINK-33637,1 63470U 25070L   26026.72610722  .00048079  00000-0  17431-2 0  9993,2 63470  42.9996 137.2189 0001311 278.0370  82.0333 15.27622053 46557,42.9996,490.9596621070793,137.2189,278.037,0.0001311,15.27622053,428
63471,STARLINK-33744,1 63471U 25070M   26026.71068619  .00028108  00000-0  10261-2 0  9990,2 63471  43.0000 137.1001 0001207 264.0513  96.0201 15.27611298 46554,43.0,490.92051401862875,137.1001,264.0513,0.0001207,15.27611298,428
63472,STARLINK-33766,1 63472U 25070N   26026.65429441  .00025244  00000-0  92331-3 0  9995,2 63472  42.9937 137.5357 0000863 248.1584 111.9176 15.27594533 46547,42.9937,490.73469595903435,137.5357,248.1584,8.63e-05,15.27594533,412
63473,STARLINK-33765,1 63473U 25070P   26026.70168611  .00042675  00000-0  15493-2 0  9991,2 63473  43.0010 137.0327 0002231 253.5524 106.5082 15.27622730 46557,43.001,491.5888521033386,137.0327,253.5524,0.0002231,15.2762273,427
63474,STARLINK-33735,1 63474U 25070Q   26026.68370685  .00044942  00000-0  16314-2 0  9997,2 63474  43.0011 136.8957 0000939 284.5930  75.4818 15.27608626 46552,43.0011,490.7446381618055,136.8957,284.593,9.39e-05,15.27608626,426
